*******************************************************************************
 Revised: September 28, 2017           Jupiter                              599
 
 PHYSICAL DATA (updated 2018-Aug-15):
  Mass x10^24 (kg)      = 1898.13+-.19    Density (g/cm^3)       =   1.326
  Equat. radius (1 bar) = 71492+-4 km     Polar radius (km)      =  66854+-10
  Vol. Mean Radius (km) = 69911+-6        Flattening             =   0.06487
  Geometric Albedo      = 0.52            Rocky core mass (Mc/M) =  0.0261
  Sid. rot. period (III)= 9h 55m 29.71 s  Sid. rot. rate (rad/s) =  0.00017585 
  Mean solar day, hrs   = ~9.9259         
  GM (km^3/s^2)         = 126686534.911   GM 1-sigma (km^3/s^2)  =  +-1.5
  Equ. grav, ge (m/s^2) = 24.79           Pol. grav, gp (m/s^2)  =  28.34
  Vis. magnitude V(1,0) = -9.40
  Vis. mag. (opposition)= -2.70           Obliquity to orbit     =  3.13 deg
  Sidereal orbit period = 11.861982204 y  Sidereal orbit period  = 4332.589 d
  Mean daily motion     = 0.0831294 deg/d Mean orbit speed, km/s = 13.0697
  Atmos. temp. (1 bar)  = 165+-5 K        Escape speed, km/s    =  59.5           
  A_roche(ice)/Rp       =  2.76           Hill's sphere rad. Rp  = 740
                                 Perihelion   Aphelion     Mean
  Solar Constant (W/m^2)         56           46           51
  Maximum Planetary IR (W/m^2)   13.7         13.4         13.6
  Minimum Planetary IR (W/m^2)   13.7         13.4         13.6
*******************************************************************************
 
 
*******************************************************************************
Ephemeris / WWW_USER Fri Nov  9 16:04:15 2018 Pasadena, USA      / Horizons    
*******************************************************************************
Target body name: Jupiter (599)                   {source: jup341}
Center body name: Earth (399)                     {source: DE431mx}
Center-site name: GEOCENTRIC
*******************************************************************************
Start time      : A.D. 2017-Mar-27 00:00:00.0000 UT      
Stop  time      : A.D. 2017-Mar-29 00:00:00.0000 UT      
Step-size       : 5 minutes
*******************************************************************************
Target pole/equ : IAU_JUPITER                     {West-longitude positive}
Target radii    : 71492.0 x 71492.0 x 66854.0 km  {Equator, meridian, pole}    
Center geodetic : 0.00000000,0.00000000,0.0000000 {E-lon(deg),Lat(deg),Alt(km)}
Center cylindric: 0.00000000,0.00000000,0.0000000 {E-lon(deg),Dxy(km),Dz(km)}
Center pole/equ : High-precision EOP model        {East-longitude positive}
Center radii    : 6378.1 x 6378.1 x 6356.8 km     {Equator, meridian, pole}    
Target primary  : Sun
Vis. interferer : MOON (R_eq= 1737.400) km        {source: DE431mx}
Rel. light bend : Sun, EARTH                      {source: DE431mx}
Rel. lght bnd GM: 1.3271E+11, 3.9860E+05 km^3/s^2                              
Atmos refraction: NO (AIRLESS)
RA format       : DEG
Time format     : CAL 
EOP file        : eop.181108.p190130                                           
EOP coverage    : DATA-BASED 1962-JAN-20 TO 2018-NOV-08. PREDICTS-> 2019-JAN-29
Units conversion: 1 au= 149597870.700 km, c= 299792.458 km/s, 1 day= 86400.0 s 
Table cut-offs 1: Elevation (-90.0deg=NO ),Airmass (>38.000=NO), Daylight (NO )
Table cut-offs 2: Solar elongation (  0.0,180.0=NO ),Local Hour Angle( 0.0=NO )
Table cut-offs 3: RA/DEC angular rate (     0.0=NO )                           
**************************************************************************************************************************************
 Date__(UT)__HR:MN:SC.fff     R.A._(ICRF/J2K)_DEC Ang-diam Ob-lon Ob-lat Sl-lon Sl-lat   NP.ang   NP.dist            delta      deldot
**************************************************************************************************************************************
$$SOE
 2017-Mar-27 11:00:00.000     198.55891  -6.15331 44.01953 309.82  -3.49 312.12  -3.08  23.7861    -20.54 4.47859468287785  -6.5902925
 2017-Mar-27 11:05:00.000     198.55851  -6.15314 44.01966 312.84  -3.49 315.14  -3.08  23.7862    -20.54 4.47858146870091  -6.5884796
 2017-Mar-27 11:10:00.000     198.55812  -6.15298 44.01979 315.86  -3.49 318.17  -3.08  23.7863    -20.54 4.47856825815979  -6.5866665
 2017-Mar-27 11:15:00.000     198.55772  -6.15281 44.01992 318.89  -3.49 321.19  -3.08  23.7863    -20.54 4.47855505125483  -6.5848532
 2017-Mar-27 11:20:00.000     198.55733  -6.15265 44.02005 321.91  -3.49 324.21  -3.08  23.7864    -20.54 4.47854184798636  -6.5830397
 2017-Mar-27 11:25:00.000     198.55693  -6.15249 44.02018 324.93  -3.49 327.23  -3.08  23.7865    -20.54 4.47852864835473  -6.5812261
 2017-Mar-27 11:30:00.000     198.55654  -6.15232 44.02031 327.96  -3.49 330.26  -3.08  23.7865    -20.54 4.47851545236028  -6.5794123
 2017-Mar-27 11:35:00.000     198.55614  -6.15216 44.02044 330.98  -3.49 333.28  -3.08  23.7866    -20.54 4.47850226000334  -6.5775983
 2017-Mar-27 11:40:00.000     198.55575  -6.15199 44.02057 334.00  -3.49 336.30  -3.08  23.7867    -20.54 4.47848907128425  -6.5757841
 2017-Mar-27 11:45:00.000     198.55535  -6.15183 44.02070 337.03  -3.49 339.32  -3.08  23.7867    -20.54 4.47847588620338  -6.5739698
 2017-Mar-27 11:50:00.000     198.55496  -6.15167 44.02083 340.05  -3.49 342.35  -3.08  23.7868    -20.54 4.47846270476105  -6.5721553
 2017-Mar-27 11:55:00.000     198.55456  -6.15150 44.02096 343.07  -3.49 345.37  -3.08  23.7869    -20.54 4.47844952695761  -6.5703407
 2017-Mar-27 12:00:00.000     198.55417  -6.15134 44.02109 346.09  -3.49 348.39  -3.08  23.7869    -20.54 4.47843635279340  -6.5685258
 2017-Mar-27 12:05:00.000     198.55377  -6.15117 44.02122 349.12  -3.49 351.41  -3.08  23.7870    -20.54 4.47842318226879  -6.5667108
 2017-Mar-27 12:10:00.000     198.55338  -6.15101 44.02135 352.14  -3.49 354.44  -3.08  23.7871    -20.54 4.47841001538410  -6.5648957
 2017-Mar-27 12:15:00.000     198.55298  -6.15085 44.02147 355.16  -3.49 357.46  -3.08  23.7871    -20.54 4.47839685213968  -6.5630803
 2017-Mar-27 12:20:00.000     198.55259  -6.15068 44.02160 358.19  -3.49   0.48  -3.08  23.7872    -20.54 4.47838369253590  -6.5612648
 2017-Mar-27 12:25:00.000     198.55219  -6.15052 44.02173   1.21  -3.49   3.50  -3.08  23.7873    -20.54 4.47837053657308  -6.5594491
 2017-Mar-27 12:30:00.000     198.55180  -6.15036 44.02186   4.23  -3.48   6.53  -3.08  23.7873    -20.54 4.47835738425159  -6.5576332
 2017-Mar-27 12:35:00.000     198.55140  -6.15019 44.02199   7.26  -3.48   9.55  -3.08  23.7874    -20.54 4.47834423557178  -6.5558172
 2017-Mar-27 12:40:00.000     198.55101  -6.15003 44.02212  10.28  -3.48  12.57  -3.08  23.7874    -20.55 4.47833109053398  -6.5540009
 2017-Mar-27 12:45:00.000     198.55061  -6.14986 44.02225  13.30  -3.48  15.59  -3.08  23.7875    -20.55 4.47831794913857  -6.5521845
 2017-Mar-27 12:50:00.000     198.55022  -6.14970 44.02238  16.33  -3.48  18.62  -3.08  23.7876    -20.55 4.47830481138587  -6.5503680
 2017-Mar-27 12:55:00.000     198.54982  -6.14953 44.02251  19.35  -3.48  21.64  -3.08  23.7876    -20.55 4.47829167727625  -6.5485512
 2017-Mar-27 13:00:00.000     198.54943  -6.14937 44.02264  22.37  -3.48  24.66  -3.08  23.7877    -20.55 4.47827854681006  -6.5467343
 2017-Mar-27 13:05:00.000     198.54903  -6.14921 44.02277  25.40  -3.48  27.68  -3.08  23.7878    -20.55 4.47826541998765  -6.5449172
 2017-Mar-27 13:10:00.000     198.54864  -6.14904 44.02290  28.42  -3.48  30.71  -3.08  23.7878    -20.55 4.47825229680937  -6.5430999
 2017-Mar-27 13:15:00.000     198.54824  -6.14888 44.02302  31.44  -3.48  33.73  -3.08  23.7879    -20.55 4.47823917727556  -6.5412825
 2017-Mar-27 13:20:00.000     198.54785  -6.14871 44.02315  34.47  -3.48  36.75  -3.08  23.7880    -20.55 4.47822606138660  -6.5394648
 2017-Mar-27 13:25:00.000     198.54745  -6.14855 44.02328  37.49  -3.48  39.77  -3.08  23.7880    -20.55 4.47821294914282  -6.5376470
 2017-Mar-27 13:30:00.000     198.54706  -6.14839 44.02341  40.51  -3.48  42.80  -3.08  23.7881    -20.55 4.47819984054458  -6.5358291
 2017-Mar-27 13:35:00.000     198.54666  -6.14822 44.02354  43.54  -3.48  45.82  -3.08  23.7882    -20.55 4.47818673559223  -6.5340109
 2017-Mar-27 13:40:00.000     198.54627  -6.14806 44.02367  46.56  -3.48  48.84  -3.08  23.7882    -20.55 4.47817363428612  -6.5321926
 2017-Mar-27 13:45:00.000     198.54587  -6.14789 44.02380  49.58  -3.48  51.86  -3.08  23.7883    -20.55 4.47816053662661  -6.5303741
 2017-Mar-27 13:50:00.000     198.54547  -6.14773 44.02393  52.60  -3.48  54.89  -3.08  23.7884    -20.55 4.47814744261405  -6.5285554
 2017-Mar-27 13:55:00.000     198.54508  -6.14757 44.02406  55.63  -3.48  57.91  -3.08  23.7884    -20.55 4.47813435224878  -6.5267366
 2017-Mar-27 14:00:00.000     198.54468  -6.14740 44.02418  58.65  -3.48  60.93  -3.08  23.7885    -20.55 4.47812126553116  -6.5249175
 2017-Mar-27 14:05:00.000     198.54429  -6.14724 44.02431  61.67  -3.48  63.95  -3.08  23.7886    -20.55 4.47810818246155  -6.5230983
 2017-Mar-27 14:10:00.000     198.54389  -6.14707 44.02444  64.70  -3.48  66.98  -3.09  23.7886    -20.55 4.47809510304028  -6.5212789
 2017-Mar-27 14:15:00.000     198.54350  -6.14691 44.02457  67.72  -3.48  70.00  -3.09  23.7887    -20.55 4.47808202726772  -6.5194594
 2017-Mar-27 14:20:00.000     198.54310  -6.14675 44.02470  70.74  -3.48  73.02  -3.09  23.7888    -20.55 4.47806895514422  -6.5176397
 2017-Mar-27 14:25:00.000     198.54271  -6.14658 44.02483  73.77  -3.48  76.04  -3.09  23.7888    -20.55 4.47805588667011  -6.5158198
 2017-Mar-27 14:30:00.000     198.54231  -6.14642 44.02496  76.79  -3.48  79.07  -3.09  23.7889    -20.55 4.47804282184576  -6.5139997
 2017-Mar-27 14:35:00.000     198.54192  -6.14625 44.02508  79.81  -3.48  82.09  -3.09  23.7890    -20.55 4.47802976067151  -6.5121794
